[
    {
        "Altitude(m)": 605470.7855493013,
        "Argument of Periapsis(deg)": 0.0,
        "Eccentricity": 0.0,
        "Inclination(deg)": 60.0,
        "Latitude(deg)": 27.98819170186802,
        "Longitude(deg)": 42.26289572115406,
        "Mean Anomaly(deg)": -212.72730000000004,
        "RAAN(deg)": 340.00000000000006,
        "Satellite Name": "Test1 1505",
        "Satellite Number": 1505,
        "Semi-Major Axis(m)": 6980739.136638005,
        "Time(s)": 0
    },
    {
        "Altitude(m)": 605395.8236703745,
        "Argument of Periapsis(deg)": 0.00010418945913296404,
        "Eccentricity": 0.0,
        "Inclination(deg)": 60.0,
        "Latitude(deg)": 27.473882998494233,
        "Longitude(deg)": 42.61608456106754,
        "Mean Anomaly(deg)": -212.1071938545382,
        "RAAN(deg)": 339.99957995086027,
        "Satellite Name": "Test1 1505",
        "Satellite Number": 1505,
        "Semi-Major Axis(m)": 6980739.136638005,
        "Time(s)": 10
    }
]